*******************************************************************************
 Revised: Sep 28, 2012             Deimos / (Mars)                          402

 SATELLITE PHYSICAL PROPERTIES:
  Radius (km)             = 7.8 x 6.0 x 5.1 Density (g cm^-3)   =  1.76 +- 0.30
  Mass (10^20 kg )        = 1.80 (10^-5)    Geometric Albedo    =  0.06 
                               (+- 0.15)    V(1,0)              = +12.89

 SATELLITE ORBITAL DATA:
  Semi-major axis, a (km) = 23.4632(10^3)   Orbital period      = 1.263 d
  Eccentricity, e         =  0.00033        Rotational period   = Synchronous
  Inclination, i  (deg)   =  1.791
*******************************************************************************
 

 

*******************************************************************************
Ephemeris / WWW_USER Thu Dec 26 16:03:57 2019 Pasadena, USA      / Horizons    
*******************************************************************************
Target body name: Deimos (402)                    {source: mar097}
Center body name: Sun (10)                        {source: mar097}
Center-site name: BODY CENTER
*******************************************************************************
Start time      : A.D. 2019-Dec-26 00:00:00.0000 TDB
Stop  time      : A.D. 2020-Jan-25 00:00:00.0000 TDB
Step-size       : 1440 minutes
*******************************************************************************
Center geodetic : 0.00000000,0.00000000,0.0000000 {E-lon(deg),Lat(deg),Alt(km)}
Center cylindric: 0.00000000,0.00000000,0.0000000 {E-lon(deg),Dxy(km),Dz(km)}
Center radii    : 696000.0 x 696000.0 x 696000.0 k{Equator, meridian, pole}    
Keplerian GM    : 1.3271244004193939E+11 km^3/s^2
Output units    : KM-S, deg                                                    
Output type     : GEOMETRIC osculating elements
Output format   : 10
Reference frame : ICRF/J2000.0                                                 
Coordinate systm: Ecliptic and Mean Equinox of Reference Epoch                 
*******************************************************************************
            JDTDB,            Calendar Date (TDB),                     EC,                     QR,                     IN,                     OM,                      W,                     Tp,                      N,                     MA,                     TA,                      A,                     AD,                     PR,
**************************************************************************************************************************************************************************************************************************************************************************************************************************************************
$$SOE
2458864.500000000, A.D. 2020-Jan-16 00:00:00.0000,  1.294339950709514E-01,  2.164057039914668E+08,  3.109603933765986E+00,  4.608821209788006E+01,  2.475599663411189E+02,  1.104394891337731E+07,  5.325715348394332E-06,  3.011830717651436E+02,  2.874718544228282E+02,  2.485804669217516E+08,  2.807552298520364E+08,  6.759655303555374E+07,
2458865.500000000, A.D. 2020-Jan-17 00:00:00.0000,  7.778723883952296E-02,  2.299385336256789E+08,  2.208803886366750E+00,  4.826206036584568E+01,  2.192339834919194E+02,  7.496628207455212E+06,  5.301606677423553E-06,  3.202558258371937E+02,  3.141097502293584E+02,  2.493334979840586E+08,  2.687284623424382E+08,  6.790394344662152E+07,
2458866.500000000, A.D. 2020-Jan-18 00:00:00.0000,  7.620171924757134E-02,  2.034454147690794E+08,  7.350279650528935E-01,  6.110438521434823E+01,  3.139545507713319E+02,  2.329567079334431E+07,  6.386638205491474E-06,  2.112189788886753E+02,  2.070385414293824E+02,  2.202270982831600E+08,  2.370087817972407E+08,  5.636768334402571E+07,
2458867.500000000, A.D. 2020-Jan-19 00:00:00.0000,  1.650317683074092E-01,  1.731971776957037E+08,  8.431824089475071E-01,  5.777012063913926E+01,  3.130209596404061E+02,  1.962094834257587E+07,  6.986701058757294E-06,  2.229142994411030E+02,  2.118029967427141E+02,  2.074296615388709E+08,  2.416621453820381E+08,  5.152646391658158E+07,
2458868.500000000, A.D. 2020-Jan-20 00:00:00.0000,  1.501570958801292E-01,  1.917406868616044E+08,  2.466495563216263E+00,  4.784183287875042E+01,  2.886801780810893E+02,  1.574311184968575E+07,  6.159068158111721E-06,  2.630371010970092E+02,  2.465665115628598E+02,  2.256189772628369E+08,  2.594972676640694E+08,  5.845040041095611E+07,
2458869.500000000, A.D. 2020-Jan-21 00:00:00.0000,  1.277942178676749E-01,  2.204847774700939E+08,  3.068055059948766E+00,  4.715103505484880E+01,  2.379524580960319E+02,  9.482282412160799E+06,  5.193246961423256E-06,  3.107561656756887E+02,  2.984744900009521E+02,  2.527898599010245E+08,  2.850949423319551E+08,  6.932079346007816E+07,
2458870.500000000, A.D. 2020-Jan-22 00:00:00.0000,  5.847184465446761E-02,  2.294472576068598E+08,  1.904497881299444E+00,  4.940856228277313E+01,  2.253730519805964E+02,  8.323983506011070E+06,  5.486610243615459E-06,  3.143295468282336E+02,  3.092857303564559E+02,  2.436966502851471E+08,  2.579460429634343E+08,  6.561428350390245E+07,
2458871.500000000, A.D. 2020-Jan-23 00:00:00.0000,  1.007965449782494E-01,  1.931785980144236E+08,  5.735525652759320E-01,  6.074100598798498E+01,  3.185814848321988E+02,  2.254995322314297E+07,  6.628677422719746E-06,  2.105236341863658E+02,  2.052408944817156E+02,  2.148330246459638E+08,  2.364874512775041E+08,  5.430947639209331E+07,
2458872.500000000, A.D. 2020-Jan-24 00:00:00.0000,  1.667340392941530E-01,  1.741180512371964E+08,  1.100737189310074E+00,  5.242742658883311E+01,  3.144622822625486E+02,  1.863427764124593E+07,  6.910161767576616E-06,  2.312341270770546E+02,  2.181745125203555E+02,  2.089585551889142E+08,  2.437990591406321E+08,  5.209718847526365E+07,
2458873.500000000, A.D. 2020-Jan-25 00:00:00.0000,  1.438330085554954E-01,  1.990955609960963E+08,  2.720702737907032E+00,  4.820082713886851E+01,  2.774791710630780E+02,  1.420905805134986E+07,  5.886048060452025E-06,  2.763648014160019E+02,  2.598822687552751E+02,  2.325429069160761E+08,  2.659902528360558E+08,  6.116158011328799E+07,
